{"epoch":1784799577,"count":18318,"objects":[{"id":"62795","name":"QIANFAN-65","type":"PAYLOAD","l1":"1 62795U 25016L   26203.92002011  .00000082  00000-0  10797-3 0  9998","l2":"2 62795  88.9691  79.9799 0015923  63.5222 296.7560 13.51031209 77242"},{"id":"62796","name":"QIANFAN-66","type":"PAYLOAD","l1":"1 62796U 25016M   26203.94896235  .00000083  00000-0  10899-3 0  9994","l2":"2 62796  88.9710  79.9907 0016973  59.4352 300.8471 13.51024377 77291"},{"id":"62797","name":"QIANFAN-67","type":"PAYLOAD","l1":"1 62797U 25016N   26203.87905036  .00000092  00000-0  12368-3 0  9990","l2":"2 62797  88.9700  80.0018 0017018  65.7221 294.5706 13.51024095 77256"},{"id":"62798","name":"QIANFAN-68","type":"PAYLOAD","l1":"1 62798U 25016P   26203.87060990  .00000085  00000-0  11263-3 0  9997","l2":"2 62798  88.9704  80.0557 0017076  63.8255 296.4650 13.51016861 77238"},{"id":"62799","name":"QIANFAN-69","type":"PAYLOAD","l1":"1 62799U 25016Q   26203.88707968  .00000067  00000-0  85052-4 0  9990","l2":"2 62799  88.9683  79.8761 0017818  64.9897 295.3102 13.51019534 77270"},{"id":"62800","name":"QIANFAN-70","type":"PAYLOAD","l1":"1 62800U 25016R   26203.90361861  .00000086  00000-0  11359-3 0  9993","l2":"2 62800  88.9703  80.0592 0017303  56.4603 303.8198 13.51017940 77237"},{"id":"62801","name":"QIANFAN-71","type":"PAYLOAD","l1":"1 62801U 25016S   26203.89961543  .00000075  00000-0  97046-4 0  9991","l2":"2 62801  88.9697  80.0258 0017757  68.1325 292.1712 13.51021891 77235"},{"id":"62802","name":"QIANFAN-72","type":"PAYLOAD","l1":"1 62802U 25016T   26203.84187181  .00000085  00000-0  11211-3 0  9995","l2":"2 62802  88.9688  80.0234 0021062  74.5554 285.7922 13.51015471 77215"},{"id":"63159","name":"QIANFAN-73","type":"PAYLOAD","l1":"1 63159U 25046A   26203.86885829  .00000110  00000-0  15229-3 0  9992","l2":"2 63159  88.9720 296.9768 0014900 192.7398 167.3379 13.51016619 77407"},{"id":"63160","name":"QIANFAN-74","type":"PAYLOAD","l1":"1 63160U 25046B   26203.85253946  .00000119  00000-0  16523-3 0  9999","l2":"2 63160  88.9721 296.8682 0002546 103.5282 256.6152 13.51024523 77469"},{"id":"63161","name":"QIANFAN-75","type":"PAYLOAD","l1":"1 63161U 25046C   26203.84017257  .00000081  00000-0  10693-3 0  9992","l2":"2 63161  88.9722 297.1061 0015900 196.6454 163.4177 13.51016411 77333"},{"id":"63162","name":"QIANFAN-76","type":"PAYLOAD","l1":"1 63162U 25046D   26203.83601049  .00000113  00000-0  15590-3 0  9997","l2":"2 63162  88.9722 297.0864 0013418 195.6100 164.4639 13.51015968 77344"},{"id":"63163","name":"QIANFAN-77","type":"PAYLOAD","l1":"1 63163U 25046E   26203.85935542  .00000230  00000-0  15737-3 0  9991","l2":"2 63163  88.9723 293.2614 0017404 106.7990 253.5098 13.96225488 79447"},{"id":"63164","name":"QIANFAN-78","type":"PAYLOAD","l1":"1 63164U 25046F   26203.87723176  .00000123  00000-0  17150-3 0  9994","l2":"2 63164  88.9721 296.9440 0014701 198.4420 161.6200 13.51011344 77421"},{"id":"63165","name":"QIANFAN-79","type":"PAYLOAD","l1":"1 63165U 25046G   26203.90593214  .00000117  00000-0  16265-3 0  9996","l2":"2 63165  88.9724 297.0566 0014556 196.7759 163.2912 13.51021478 77371"},{"id":"63166","name":"QIANFAN-80","type":"PAYLOAD","l1":"1 63166U 25046H   26203.84843472  .00000144  00000-0  20384-3 0  9991","l2":"2 63166  88.9721 296.7634 0013230 200.6591 159.4027 13.51018679 77528"}]}