{"fetched_at":"2026-07-23T07:05:22.094Z","source":"https://celestrak.org/NORAD/elements/gp.php?GROUP=qianfan&FORMAT=JSON","constellation":"qianfan","records":[{"OBJECT_NAME":"QIANFAN-65","OBJECT_ID":"2025-016L","EPOCH":"2026-07-22T22:04:49.737504","CLASSIFICATION_TYPE":"U","MEAN_MOTION":13.51031209,"ECCENTRICITY":0.00159228,"INCLINATION":88.9691,"RA_OF_ASC_NODE":79.9799,"ARG_OF_PERICENTER":63.5222,"MEAN_ANOMALY":296.756,"EPHEMERIS_TYPE":0,"NORAD_CAT_ID":62795,"ELEMENT_SET_NO":999,"REV_AT_EPOCH":7724,"BSTAR":0.00010796557,"MEAN_MOTION_DOT":8.2e-7,"MEAN_MOTION_DDOT":0},{"OBJECT_NAME":"QIANFAN-66","OBJECT_ID":"2025-016M","EPOCH":"2026-07-22T22:46:30.347040","CLASSIFICATION_TYPE":"U","MEAN_MOTION":13.51024377,"ECCENTRICITY":0.00169727,"INCLINATION":88.971,"RA_OF_ASC_NODE":79.9907,"ARG_OF_PERICENTER":59.4352,"MEAN_ANOMALY":300.8471,"EPHEMERIS_TYPE":0,"NORAD_CAT_ID":62796,"ELEMENT_SET_NO":999,"REV_AT_EPOCH":7729,"BSTAR":0.00010899048,"MEAN_MOTION_DOT":8.3e-7,"MEAN_MOTION_DDOT":0},{"OBJECT_NAME":"QIANFAN-67","OBJECT_ID":"2025-016N","EPOCH":"2026-07-22T21:05:49.951104","CLASSIFICATION_TYPE":"U","MEAN_MOTION":13.51024095,"ECCENTRICITY":0.00170178,"INCLINATION":88.97,"RA_OF_ASC_NODE":80.0018,"ARG_OF_PERICENTER":65.7221,"MEAN_ANOMALY":294.5706,"EPHEMERIS_TYPE":0,"NORAD_CAT_ID":62797,"ELEMENT_SET_NO":999,"REV_AT_EPOCH":7725,"BSTAR":0.00012367744,"MEAN_MOTION_DOT":9.2e-7,"MEAN_MOTION_DDOT":0},{"OBJECT_NAME":"QIANFAN-68","OBJECT_ID":"2025-016P","EPOCH":"2026-07-22T20:53:40.695360","CLASSIFICATION_TYPE":"U","MEAN_MOTION":13.51016861,"ECCENTRICITY":0.00170756,"INCLINATION":88.9704,"RA_OF_ASC_NODE":80.0557,"ARG_OF_PERICENTER":63.8255,"MEAN_ANOMALY":296.465,"EPHEMERIS_TYPE":0,"NORAD_CAT_ID":62798,"ELEMENT_SET_NO":999,"REV_AT_EPOCH":7723,"BSTAR":0.0001126277,"MEAN_MOTION_DOT":8.5e-7,"MEAN_MOTION_DDOT":0},{"OBJECT_NAME":"QIANFAN-69","OBJECT_ID":"2025-016Q","EPOCH":"2026-07-22T21:17:23.684352","CLASSIFICATION_TYPE":"U","MEAN_MOTION":13.51019534,"ECCENTRICITY":0.00178179,"INCLINATION":88.9683,"RA_OF_ASC_NODE":79.8761,"ARG_OF_PERICENTER":64.9897,"MEAN_ANOMALY":295.3102,"EPHEMERIS_TYPE":0,"NORAD_CAT_ID":62799,"ELEMENT_SET_NO":999,"REV_AT_EPOCH":7727,"BSTAR":0.000085051697,"MEAN_MOTION_DOT":6.7e-7,"MEAN_MOTION_DDOT":0},{"OBJECT_NAME":"QIANFAN-70","OBJECT_ID":"2025-016R","EPOCH":"2026-07-22T21:41:12.647904","CLASSIFICATION_TYPE":"U","MEAN_MOTION":13.5101794,"ECCENTRICITY":0.00173025,"INCLINATION":88.9703,"RA_OF_ASC_NODE":80.0592,"ARG_OF_PERICENTER":56.4603,"MEAN_ANOMALY":303.8198,"EPHEMERIS_TYPE":0,"NORAD_CAT_ID":62800,"ELEMENT_SET_NO":999,"REV_AT_EPOCH":7723,"BSTAR":0.00011358548,"MEAN_MOTION_DOT":8.6e-7,"MEAN_MOTION_DDOT":0},{"OBJECT_NAME":"QIANFAN-71","OBJECT_ID":"2025-016S","EPOCH":"2026-07-22T21:35:26.773152","CLASSIFICATION_TYPE":"U","MEAN_MOTION":13.51021891,"ECCENTRICITY":0.00177572,"INCLINATION":88.9697,"RA_OF_ASC_NODE":80.0258,"ARG_OF_PERICENTER":68.1325,"MEAN_ANOMALY":292.1712,"EPHEMERIS_TYPE":0,"NORAD_CAT_ID":62801,"ELEMENT_SET_NO":999,"REV_AT_EPOCH":7723,"BSTAR":0.000097045775,"MEAN_MOTION_DOT":7.5e-7,"MEAN_MOTION_DDOT":0},{"OBJECT_NAME":"QIANFAN-72","OBJECT_ID":"2025-016T","EPOCH":"2026-07-22T20:12:17.724384","CLASSIFICATION_TYPE":"U","MEAN_MOTION":13.51015471,"ECCENTRICITY":0.00210616,"INCLINATION":88.9688,"RA_OF_ASC_NODE":80.0234,"ARG_OF_PERICENTER":74.5554,"MEAN_ANOMALY":285.7922,"EPHEMERIS_TYPE":0,"NORAD_CAT_ID":62802,"ELEMENT_SET_NO":999,"REV_AT_EPOCH":7721,"BSTAR":0.00011211289,"MEAN_MOTION_DOT":8.5e-7,"MEAN_MOTION_DDOT":0},{"OBJECT_NAME":"QIANFAN-73","OBJECT_ID":"2025-046A","EPOCH":"2026-07-22T20:51:09.356256","CLASSIFICATION_TYPE":"U","MEAN_MOTION":13.51016619,"ECCENTRICITY":0.00148997,"INCLINATION":88.972,"RA_OF_ASC_NODE":296.9768,"ARG_OF_PERICENTER":192.7398,"MEAN_ANOMALY":167.3379,"EPHEMERIS_TYPE":0,"NORAD_CAT_ID":63159,"ELEMENT_SET_NO":999,"REV_AT_EPOCH":7740,"BSTAR":0.00015229176,"MEAN_MOTION_DOT":0.0000011,"MEAN_MOTION_DDOT":0},{"OBJECT_NAME":"QIANFAN-74","OBJECT_ID":"2025-046B","EPOCH":"2026-07-22T20:27:39.409344","CLASSIFICATION_TYPE":"U","MEAN_MOTION":13.51024523,"ECCENTRICITY":0.00025458,"INCLINATION":88.9721,"RA_OF_ASC_NODE":296.8682,"ARG_OF_PERICENTER":103.5282,"MEAN_ANOMALY":256.6152,"EPHEMERIS_TYPE":0,"NORAD_CAT_ID":63160,"ELEMENT_SET_NO":999,"REV_AT_EPOCH":7746,"BSTAR":0.00016522623,"MEAN_MOTION_DOT":0.00000119,"MEAN_MOTION_DDOT":0},{"OBJECT_NAME":"QIANFAN-75","OBJECT_ID":"2025-046C","EPOCH":"2026-07-22T20:09:50.910048","CLASSIFICATION_TYPE":"U","MEAN_MOTION":13.51016411,"ECCENTRICITY":0.00158998,"INCLINATION":88.9722,"RA_OF_ASC_NODE":297.1061,"ARG_OF_PERICENTER":196.6454,"MEAN_ANOMALY":163.4177,"EPHEMERIS_TYPE":0,"NORAD_CAT_ID":63161,"ELEMENT_SET_NO":999,"REV_AT_EPOCH":7733,"BSTAR":0.00010693226,"MEAN_MOTION_DOT":8.1e-7,"MEAN_MOTION_DDOT":0},{"OBJECT_NAME":"QIANFAN-76","OBJECT_ID":"2025-046D","EPOCH":"2026-07-22T20:03:51.306336","CLASSIFICATION_TYPE":"U","MEAN_MOTION":13.51015968,"ECCENTRICITY":0.00134185,"INCLINATION":88.9722,"RA_OF_ASC_NODE":297.0864,"ARG_OF_PERICENTER":195.61,"MEAN_ANOMALY":164.4639,"EPHEMERIS_TYPE":0,"NORAD_CAT_ID":63162,"ELEMENT_SET_NO":999,"REV_AT_EPOCH":7734,"BSTAR":0.00015590051,"MEAN_MOTION_DOT":0.00000113,"MEAN_MOTION_DDOT":0},{"OBJECT_NAME":"QIANFAN-77","OBJECT_ID":"2025-046E","EPOCH":"2026-07-22T20:37:28.308288","CLASSIFICATION_TYPE":"U","MEAN_MOTION":13.96225488,"ECCENTRICITY":0.00174042,"INCLINATION":88.9723,"RA_OF_ASC_NODE":293.2614,"ARG_OF_PERICENTER":106.799,"MEAN_ANOMALY":253.5098,"EPHEMERIS_TYPE":0,"NORAD_CAT_ID":63163,"ELEMENT_SET_NO":999,"REV_AT_EPOCH":7944,"BSTAR":0.00015737075,"MEAN_MOTION_DOT":0.0000023,"MEAN_MOTION_DDOT":0},{"OBJECT_NAME":"QIANFAN-78","OBJECT_ID":"2025-046F","EPOCH":"2026-07-22T21:03:12.824064","CLASSIFICATION_TYPE":"U","MEAN_MOTION":13.51011344,"ECCENTRICITY":0.0014701,"INCLINATION":88.9721,"RA_OF_ASC_NODE":296.944,"ARG_OF_PERICENTER":198.442,"MEAN_ANOMALY":161.62,"EPHEMERIS_TYPE":0,"NORAD_CAT_ID":63164,"ELEMENT_SET_NO":999,"REV_AT_EPOCH":7742,"BSTAR":0.00017150251,"MEAN_MOTION_DOT":0.00000123,"MEAN_MOTION_DDOT":0},{"OBJECT_NAME":"QIANFAN-79","OBJECT_ID":"2025-046G","EPOCH":"2026-07-22T21:44:32.536896","CLASSIFICATION_TYPE":"U","MEAN_MOTION":13.51021478,"ECCENTRICITY":0.00145564,"INCLINATION":88.9724,"RA_OF_ASC_NODE":297.0566,"ARG_OF_PERICENTER":196.7759,"MEAN_ANOMALY":163.2912,"EPHEMERIS_TYPE":0,"NORAD_CAT_ID":63165,"ELEMENT_SET_NO":999,"REV_AT_EPOCH":7737,"BSTAR":0.0001626544,"MEAN_MOTION_DOT":0.00000117,"MEAN_MOTION_DDOT":0},{"OBJECT_NAME":"QIANFAN-80","OBJECT_ID":"2025-046H","EPOCH":"2026-07-22T20:21:44.759808","CLASSIFICATION_TYPE":"U","MEAN_MOTION":13.51018679,"ECCENTRICITY":0.00132299,"INCLINATION":88.9721,"RA_OF_ASC_NODE":296.7634,"ARG_OF_PERICENTER":200.6591,"MEAN_ANOMALY":159.4027,"EPHEMERIS_TYPE":0,"NORAD_CAT_ID":63166,"ELEMENT_SET_NO":999,"REV_AT_EPOCH":7752,"BSTAR":0.00020384401,"MEAN_MOTION_DOT":0.00000144,"MEAN_MOTION_DDOT":0}]}
